{"type": "FeatureCollection", "features": [ {"type": "Feature", "properties": {"norad_id": 66407, "name": "STARLINK-35686", "group": "last-30-days", "lat": -40.280958468228405, "lon": 156.8317063185709, "alt_km": 409.68491807344617, "timestamp": "2025-12-05T16:54:13.484971+00:00", "meta": {"OBJECT_NAME": "STARLINK-35686", "OBJECT_ID": "2025-257AD", "EPOCH": "2025-12-05T05:04:43.288896", "MEAN_MOTION": 15.51267271, "ECCENTRICITY": 0.00081315, "INCLINATION": 53.1592, "RA_OF_ASC_NODE": 299.7469, "ARG_OF_PERICENTER": 236.5195, "MEAN_ANOMALY": 123.5038, "EPHEMERIS_TYPE": 0, "CLASSIFICATION_TYPE": "U", "NORAD_CAT_ID": 66407, "ELEMENT_SET_NO": 999, "REV_AT_EPOCH": 521, "BSTAR": 0.013052692, "MEAN_MOTION_DOT": 0.00853869, "MEAN_MOTION_DDOT": 0}, "tle": {"line1": "1 66407U 25257AD  25339.21161214  .00853869  00000+0  13053-1 0  9995", "line2": "2 66407  53.1592 299.7469 0008131 236.5195 123.5038 15.51267271  5217"}}, "geometry": {"type": "Point", "coordinates": [156.8317063185709, -40.280958468228405]}}, {"type": "Feature", "properties": {"norad_id": 66408, "name": "STARLINK-35679", "group": "last-30-days", "lat": -37.617856914573494, "lon": 152.68398731585913, "alt_km": 422.817043431849, "timestamp": "2025-12-05T16:54:13.484980+00:00", "meta": {"OBJECT_NAME": "STARLINK-35679", "OBJECT_ID": "2025-257AE", "EPOCH": "2025-12-05T05:04:49.336896", "MEAN_MOTION": 15.49374917, "ECCENTRICITY": 0.00012271, "INCLINATION": 53.1593, "RA_OF_ASC_NODE": 299.7483, "ARG_OF_PERICENTER": 105.0367, "MEAN_ANOMALY": 255.0778, "EPHEMERIS_TYPE": 0, "CLASSIFICATION_TYPE": "U", "NORAD_CAT_ID": 66408, "ELEMENT_SET_NO": 999, "REV_AT_EPOCH": 521, "BSTAR": 0.0027685853, "MEAN_MOTION_DOT": 0.00157026, "MEAN_MOTION_DDOT": 0}, "tle": {"line1": "1 66408U 25257AE  25339.21168214  .00157026  00000+0  27686-2 0  9993", "line2": "2 66408  53.1593 299.7483 0001227 105.0367 255.0778 15.49374917  5210"}}, "geometry": {"type": "Point", "coordinates": [152.68398731585913, -37.617856914573494]}}, {"type": "Feature", "properties": {"norad_id": 66409, "name": "CHUTIAN-2 A", "group": "last-30-days", "lat": 81.57544359904179, "lon": -56.03891785660484, "alt_km": 721.3598125378903, "timestamp": "2025-12-05T16:54:13.484992+00:00", "meta": {"OBJECT_NAME": "CHUTIAN-2 A", "OBJECT_ID": "2025-256A", "EPOCH": "2025-12-05T08:12:03.711168", "MEAN_MOTION": 14.49921032, "ECCENTRICITY": 0.0013503, "INCLINATION": 98.2767, "RA_OF_ASC_NODE": 44.2334, "ARG_OF_PERICENTER": 200.4106, "MEAN_ANOMALY": 159.655, "EPHEMERIS_TYPE": 0, "CLASSIFICATION_TYPE": "U", "NORAD_CAT_ID": 66409, "ELEMENT_SET_NO": 999, "REV_AT_EPOCH": 380, "BSTAR": 4.7905968e-05, "MEAN_MOTION_DOT": 1.41e-06, "MEAN_MOTION_DDOT": 0}, "tle": {"line1": "1 66409U 25256A   25339.34170962  .00000141  00000+0  47906-4 0  9994", "line2": "2 66409  98.2767  44.2334 0013503 200.4106 159.6550 14.49921032  3808"}}, "geometry": {"type": "Point", "coordinates": [-56.03891785660484, 81.57544359904179]}}, {"type": "Feature", "properties": {"norad_id": 66410, "name": "CHUTIAN-2 B", "group": "last-30-days", "lat": 18.47585661384498, "lon": -132.58357266475517, "alt_km": 715.5202039438082, "timestamp": "2025-12-05T16:54:13.485002+00:00", "meta": {"OBJECT_NAME": "CHUTIAN-2 B", "OBJECT_ID": "2025-256B", "EPOCH": "2025-12-05T11:11:50.809056", "MEAN_MOTION": 14.51011196, "ECCENTRICITY": 0.0013404, "INCLINATION": 98.2803, "RA_OF_ASC_NODE": 44.3934, "ARG_OF_PERICENTER": 203.633, "MEAN_ANOMALY": 156.425, "EPHEMERIS_TYPE": 0, "CLASSIFICATION_TYPE": "U", "NORAD_CAT_ID": 66410, "ELEMENT_SET_NO": 999, "REV_AT_EPOCH": 382, "BSTAR": 0.00034354, "MEAN_MOTION_DOT": 1.316e-05, "MEAN_MOTION_DDOT": 0}, "tle": {"line1": "1 66410U 25256B   25339.46656029  .00001316  00000+0  34354-3 0  9999", "line2": "2 66410  98.2803  44.3934 0013404 203.6330 156.4250 14.51011196  3820"}}, "geometry": {"type": "Point", "coordinates": [-132.58357266475517, 18.47585661384498]}}, {"type": "Feature", "properties": {"norad_id": 66411, "name": "ZK-1A R/B", "group": "last-30-days", "lat": -75.73805563718665, "lon": 82.14757828348908, "alt_km": 413.81218956079374, "timestamp": "2025-12-05T16:54:13.485011+00:00", "meta": {"OBJECT_NAME": "ZK-1A R/B", "OBJECT_ID": "2025-256C", "EPOCH": "2025-12-05T04:27:00.218016", "MEAN_MOTION": 15.01703928, "ECCENTRICITY": 0.02292035, "INCLINATION": 98.3244, "RA_OF_ASC_NODE": 46.4193, "ARG_OF_PERICENTER": 270.2295, "MEAN_ANOMALY": 87.2667, "EPHEMERIS_TYPE": 0, "CLASSIFICATION_TYPE": "U", "NORAD_CAT_ID": 66411, "ELEMENT_SET_NO": 999, "REV_AT_EPOCH": 391, "BSTAR": 0.0010473445, "MEAN_MOTION_DOT": 0.00024113, "MEAN_MOTION_DDOT": 0}, "tle": {"line1": "1 66411U 25256C   25339.18541919  .00024113  00000+0  10473-2 0  9995", "line2": "2 66411  98.3244  46.4193 0229203 270.2295  87.2667 15.01703928  3917"}}, "geometry": {"type": "Point", "coordinates": [82.14757828348908, -75.73805563718665]}}, {"type": "Feature", "properties": {"norad_id": 66412, "name": "HULIANWANG DIGUI 13A", "group": "last-30-days", "lat": 49.536656042204314, "lon": 11.392670296782207, "alt_km": 810.1638421863399, "timestamp": "2025-12-05T16:54:13.485020+00:00", "meta": {"OBJECT_NAME": "HULIANWANG DIGUI 13A", "OBJECT_ID": "2025-258A", "EPOCH": "2025-12-05T03:02:07.237824", "MEAN_MOTION": 14.2349368, "ECCENTRICITY": 0.00141336, "INCLINATION": 50.0042, "RA_OF_ASC_NODE": 294.0184, "ARG_OF_PERICENTER": 330.9872, "MEAN_ANOMALY": 29.0254, "EPHEMERIS_TYPE": 0, "CLASSIFICATION_TYPE": "U", "NORAD_CAT_ID": 66412, "ELEMENT_SET_NO": 999, "REV_AT_EPOCH": 357, "BSTAR": 0.00012103773, "MEAN_MOTION_DOT": 1.18e-06, "MEAN_MOTION_DDOT": 0}, "tle": {"line1": "1 66412U 25258A   25339.12647266  .00000118  00000+0  12104-3 0  9997", "line2": "2 66412  50.0042 294.0184 0014133 330.9872  29.0254 14.23493680  3571"}}, "geometry": {"type": "Point", "coordinates": [11.392670296782207, 49.536656042204314]}}, {"type": "Feature", "properties": {"norad_id": 66413, "name": "HULIANWANG DIGUI 13B", "group": "last-30-days", "lat": 32.129525688107044, "lon": -36.52869244554874, "alt_km": 805.9984435221486, "timestamp": "2025-12-05T16:54:13.485030+00:00", "meta": {"OBJECT_NAME": "HULIANWANG DIGUI 13B", "OBJECT_ID": "2025-258B", "EPOCH": "2025-12-04T20:28:48.239904", "MEAN_MOTION": 14.23484388, "ECCENTRICITY": 0.00134513, "INCLINATION": 50.0005, "RA_OF_ASC_NODE": 295.2301, "ARG_OF_PERICENTER": 330.8315, "MEAN_ANOMALY": 29.1845, "EPHEMERIS_TYPE": 0, "CLASSIFICATION_TYPE": "U", "NORAD_CAT_ID": 66413, "ELEMENT_SET_NO": 999, "REV_AT_EPOCH": 353, "BSTAR": 0.00014435936, "MEAN_MOTION_DOT": 1.71e-06, "MEAN_MOTION_DDOT": 0}, "tle": {"line1": "1 66413U 25258B   25338.85333611  .00000171  00000+0  14436-3 0  9992", "line2": "2 66413  50.0005 295.2301 0013451 330.8315  29.1845 14.23484388  3536"}}, "geometry": {"type": "Point", "coordinates": [-36.52869244554874, 32.129525688107044]}}, {"type": "Feature", "properties": {"norad_id": 66414, "name": "HULIANWANG DIGUI 13C", "group": "last-30-days", "lat": 41.75481416320846, "lon": -19.8270121913573, "alt_km": 807.4606406944231, "timestamp": "2025-12-05T16:54:13.485039+00:00", "meta": {"OBJECT_NAME": "HULIANWANG DIGUI 13C", "OBJECT_ID": "2025-258C", "EPOCH": "2025-12-04T23:46:24.159360", "MEAN_MOTION": 14.23510369, "ECCENTRICITY": 0.0013574, "INCLINATION": 50.0049, "RA_OF_ASC_NODE": 294.6386, "ARG_OF_PERICENTER": 329.272, "MEAN_ANOMALY": 30.7397, "EPHEMERIS_TYPE": 0, "CLASSIFICATION_TYPE": "U", "NORAD_CAT_ID": 66414, "ELEMENT_SET_NO": 999, "REV_AT_EPOCH": 355, "BSTAR": 0.00015299499, "MEAN_MOTION_DOT": 1.91e-06, "MEAN_MOTION_DDOT": 0}, "tle": {"line1": "1 66414U 25258C   25338.99055740  .00000191  00000+0  15299-3 0  9992", "line2": "2 66414  50.0049 294.6386 0013574 329.2720  30.7397 14.23510369  3550"}}, "geometry": {"type": "Point", "coordinates": [-19.8270121913573, 41.75481416320846]}}, {"type": "Feature", "properties": {"norad_id": 66415, "name": "HULIANWANG DIGUI 13D", "group": "last-30-days", "lat": 49.981561427339926, "lon": 22.62254670895899, "alt_km": 810.174006654569, "timestamp": "2025-12-05T16:54:13.485048+00:00", "meta": {"OBJECT_NAME": "HULIANWANG DIGUI 13D", "OBJECT_ID": "2025-258D", "EPOCH": "2025-12-04T23:37:54.362208", "MEAN_MOTION": 14.23498639, "ECCENTRICITY": 0.00133565, "INCLINATION": 50.0043, "RA_OF_ASC_NODE": 294.6029, "ARG_OF_PERICENTER": 335.9481, "MEAN_ANOMALY": 24.0807, "EPHEMERIS_TYPE": 0, "CLASSIFICATION_TYPE": "U", "NORAD_CAT_ID": 66415, "ELEMENT_SET_NO": 999, "REV_AT_EPOCH": 355, "BSTAR": 0.00015207685, "MEAN_MOTION_DOT": 1.89e-06, "MEAN_MOTION_DDOT": 0}, "tle": {"line1": "1 66415U 25258D   25338.98465697  .00000189  00000+0  15208-3 0  9995", "line2": "2 66415  50.0043 294.6029 0013356 335.9481  24.0807 14.23498639  3552"}}, "geometry": {"type": "Point", "coordinates": [22.62254670895899, 49.981561427339926]}}, {"type": "Feature", "properties": {"norad_id": 66416, "name": "HULIANWANG DIGUI 13E", "group": "last-30-days", "lat": 45.533514731663466, "lon": -9.588250474060978, "alt_km": 807.0520367303452, "timestamp": "2025-12-05T16:54:13.485057+00:00", "meta": {"OBJECT_NAME": "HULIANWANG DIGUI 13E", "OBJECT_ID": "2025-258E", "EPOCH": "2025-12-04T13:37:29.545248", "MEAN_MOTION": 14.23473083, "ECCENTRICITY": 0.00127373, "INCLINATION": 50.0042, "RA_OF_ASC_NODE": 296.4032, "ARG_OF_PERICENTER": 336.0461, "MEAN_ANOMALY": 23.9858, "EPHEMERIS_TYPE": 0, "CLASSIFICATION_TYPE": "U", "NORAD_CAT_ID": 66416, "ELEMENT_SET_NO": 999, "REV_AT_EPOCH": 349, "BSTAR": 0.00015573528, "MEAN_MOTION_DOT": 1.97e-06, "MEAN_MOTION_DDOT": 0}, "tle": {"line1": "1 66416U 25258E   25338.56770307  .00000197  00000+0  15574-3 0  9992", "line2": "2 66416  50.0042 296.4032 0012737 336.0461  23.9858 14.23473083  3491"}}, "geometry": {"type": "Point", "coordinates": [-9.588250474060978, 45.533514731663466]}}]}